{"type": "FeatureCollection", "features": [ {"type": "Feature", "properties": {"norad_id": 32106, "name": "FENGYUN 1C DEB", "group": "fengyun-1c-debris", "lat": -77.76991859325318, "lon": 81.37748272382692, "alt_km": 836.350558290198, "timestamp": "2025-12-22T09:53:37.687039+00:00", "meta": {"OBJECT_NAME": "FENGYUN 1C DEB", "OBJECT_ID": "1999-025CQY", "EPOCH": "2025-12-20T04:29:25.586880", "MEAN_MOTION": 14.27133511, "ECCENTRICITY": 0.01104398, "INCLINATION": 101.4619, "RA_OF_ASC_NODE": 327.8635, "ARG_OF_PERICENTER": 22.7964, "MEAN_ANOMALY": 337.8056, "EPHEMERIS_TYPE": 0, "CLASSIFICATION_TYPE": "U", "NORAD_CAT_ID": 32106, "ELEMENT_SET_NO": 999, "REV_AT_EPOCH": 69498, "BSTAR": 0.0025604023, "MEAN_MOTION_DOT": 6.603e-05, "MEAN_MOTION_DDOT": 0}, "tle": {"line1": "1 32106U 99025CQY 25354.18710170  .00006603  00000+0  25604-2 0  9994", "line2": "2 32106 101.4619 327.8635 0110439  22.7964 337.8056 14.27133511694984"}}, "geometry": {"type": "Point", "coordinates": [81.37748272382692, -77.76991859325318]}}, {"type": "Feature", "properties": {"norad_id": 32109, "name": "FENGYUN 1C DEB", "group": "fengyun-1c-debris", "lat": -64.13936304283612, "lon": -106.6766404839391, "alt_km": 641.4753176439526, "timestamp": "2025-12-22T09:53:37.687048+00:00", "meta": {"OBJECT_NAME": "FENGYUN 1C DEB", "OBJECT_ID": "1999-025CRB", "EPOCH": "2025-12-21T22:28:03.390240", "MEAN_MOTION": 14.33972725, "ECCENTRICITY": 0.0205186, "INCLINATION": 98.359, "RA_OF_ASC_NODE": 235.2052, "ARG_OF_PERICENTER": 284.854, "MEAN_ANOMALY": 73.0001, "EPHEMERIS_TYPE": 0, "CLASSIFICATION_TYPE": "U", "NORAD_CAT_ID": 32109, "ELEMENT_SET_NO": 999, "REV_AT_EPOCH": 65020, "BSTAR": 0.00052577, "MEAN_MOTION_DOT": 1.807e-05, "MEAN_MOTION_DDOT": 0}, "tle": {"line1": "1 32109U 99025CRB 25355.93615035  .00001807  00000+0  52577-3 0  9996", "line2": "2 32109  98.3590 235.2052 0205186 284.8540  73.0001 14.33972725650200"}}, "geometry": {"type": "Point", "coordinates": [-106.6766404839391, -64.13936304283612]}}, {"type": "Feature", "properties": {"norad_id": 32110, "name": "FENGYUN 1C DEB", "group": "fengyun-1c-debris", "lat": 36.15382645152492, "lon": -6.424220024798571, "alt_km": 815.7660804483203, "timestamp": "2025-12-22T09:53:37.687058+00:00", "meta": {"OBJECT_NAME": "FENGYUN 1C DEB", "OBJECT_ID": "1999-025CRC", "EPOCH": "2025-12-21T18:10:14.132064", "MEAN_MOTION": 14.28951589, "ECCENTRICITY": 0.0033503, "INCLINATION": 99.5434, "RA_OF_ASC_NODE": 165.799, "ARG_OF_PERICENTER": 340.8373, "MEAN_ANOMALY": 33.9307, "EPHEMERIS_TYPE": 0, "CLASSIFICATION_TYPE": "U", "NORAD_CAT_ID": 32110, "ELEMENT_SET_NO": 999, "REV_AT_EPOCH": 64517, "BSTAR": 0.001121, "MEAN_MOTION_DOT": 2.799e-05, "MEAN_MOTION_DDOT": 0}, "tle": {"line1": "1 32110U 99025CRC 25355.75710801  .00002799  00000+0  11210-2 0  9994", "line2": "2 32110  99.5434 165.7990 0033503 340.8373  33.9307 14.28951589645172"}}, "geometry": {"type": "Point", "coordinates": [-6.424220024798571, 36.15382645152492]}}, {"type": "Feature", "properties": {"norad_id": 32111, "name": "FENGYUN 1C DEB", "group": "fengyun-1c-debris", "lat": -54.0522088398161, "lon": 164.05889890035888, "alt_km": 748.0499301784457, "timestamp": "2025-12-22T09:53:37.687068+00:00", "meta": {"OBJECT_NAME": "FENGYUN 1C DEB", "OBJECT_ID": "1999-025CRD", "EPOCH": "2025-12-17T23:15:28.889568", "MEAN_MOTION": 14.31552028, "ECCENTRICITY": 0.01199865, "INCLINATION": 98.4433, "RA_OF_ASC_NODE": 351.5571, "ARG_OF_PERICENTER": 189.336, "MEAN_ANOMALY": 199.2635, "EPHEMERIS_TYPE": 0, "CLASSIFICATION_TYPE": "U", "NORAD_CAT_ID": 32111, "ELEMENT_SET_NO": 999, "REV_AT_EPOCH": 96106, "BSTAR": 0.00016396968, "MEAN_MOTION_DOT": 4.28e-06, "MEAN_MOTION_DDOT": 0}, "tle": {"line1": "1 32111U 99025CRD 25351.96908437  .00000428  00000+0  16397-3 0  9997", "line2": "2 32111  98.4433 351.5571 0119986 189.3360 199.2635 14.31552028961060"}}, "geometry": {"type": "Point", "coordinates": [164.05889890035888, -54.0522088398161]}}, {"type": "Feature", "properties": {"norad_id": 32113, "name": "FENGYUN 1C DEB", "group": "fengyun-1c-debris", "lat": -80.61437983191442, "lon": 105.09765739371194, "alt_km": 863.6541370939494, "timestamp": "2025-12-22T09:53:37.687078+00:00", "meta": {"OBJECT_NAME": "FENGYUN 1C DEB", "OBJECT_ID": "1999-025CRF", "EPOCH": "2025-12-14T19:47:44.837664", "MEAN_MOTION": 13.94564965, "ECCENTRICITY": 0.02380847, "INCLINATION": 99.0277, "RA_OF_ASC_NODE": 23.5568, "ARG_OF_PERICENTER": 220.9453, "MEAN_ANOMALY": 137.3616, "EPHEMERIS_TYPE": 0, "CLASSIFICATION_TYPE": "U", "NORAD_CAT_ID": 32113, "ELEMENT_SET_NO": 999, "REV_AT_EPOCH": 62915, "BSTAR": 0.0009179447, "MEAN_MOTION_DOT": 1.508e-05, "MEAN_MOTION_DDOT": 0}, "tle": {"line1": "1 32113U 99025CRF 25348.82482451  .00001508  00000+0  91794-3 0  9997", "line2": "2 32113  99.0277  23.5568 0238084 220.9453 137.3616 13.94564965629157"}}, "geometry": {"type": "Point", "coordinates": [105.09765739371194, -80.61437983191442]}}, {"type": "Feature", "properties": {"norad_id": 32114, "name": "FENGYUN 1C DEB", "group": "fengyun-1c-debris", "lat": 24.578477403976137, "lon": 111.07105297584472, "alt_km": 625.8806993396192, "timestamp": "2025-12-22T09:53:37.687088+00:00", "meta": {"OBJECT_NAME": "FENGYUN 1C DEB", "OBJECT_ID": "1999-025CRG", "EPOCH": "2025-12-06T13:19:21.641376", "MEAN_MOTION": 14.76489439, "ECCENTRICITY": 0.00447682, "INCLINATION": 99.9287, "RA_OF_ASC_NODE": 96.1919, "ARG_OF_PERICENTER": 3.5911, "MEAN_ANOMALY": 356.5605, "EPHEMERIS_TYPE": 0, "CLASSIFICATION_TYPE": "U", "NORAD_CAT_ID": 32114, "ELEMENT_SET_NO": 999, "REV_AT_EPOCH": 65638, "BSTAR": 0.0040574802, "MEAN_MOTION_DOT": 0.0002877, "MEAN_MOTION_DDOT": 0}, "tle": {"line1": "1 32114U 99025CRG 25340.55511159  .00028770  00000+0  40575-2 0  9998", "line2": "2 32114  99.9287  96.1919 0044768   3.5911 356.5605 14.76489439656383"}}, "geometry": {"type": "Point", "coordinates": [111.07105297584472, 24.578477403976137]}}, {"type": "Feature", "properties": {"norad_id": 32117, "name": "FENGYUN 1C DEB", "group": "fengyun-1c-debris", "lat": 24.237346507008052, "lon": -134.5325398599408, "alt_km": 811.7913579263095, "timestamp": "2025-12-22T09:53:37.687098+00:00", "meta": {"OBJECT_NAME": "FENGYUN 1C DEB", "OBJECT_ID": "1999-025CRK", "EPOCH": "2025-12-18T02:18:00.201024", "MEAN_MOTION": 14.23964713, "ECCENTRICITY": 0.00265666, "INCLINATION": 98.6134, "RA_OF_ASC_NODE": 37.3263, "ARG_OF_PERICENTER": 76.1616, "MEAN_ANOMALY": 284.2516, "EPHEMERIS_TYPE": 0, "CLASSIFICATION_TYPE": "U", "NORAD_CAT_ID": 32117, "ELEMENT_SET_NO": 999, "REV_AT_EPOCH": 94873, "BSTAR": 0.00078657764, "MEAN_MOTION_DOT": 1.768e-05, "MEAN_MOTION_DDOT": 0}, "tle": {"line1": "1 32117U 99025CRK 25352.09583566  .00001768  00000+0  78658-3 0  9996", "line2": "2 32117  98.6134  37.3263 0026566  76.1616 284.2516 14.23964713948732"}}, "geometry": {"type": "Point", "coordinates": [-134.5325398599408, 24.237346507008052]}}, {"type": "Feature", "properties": {"norad_id": 32119, "name": "FENGYUN 1C DEB", "group": "fengyun-1c-debris", "lat": 13.917683452759317, "lon": 42.22416531059529, "alt_km": 932.0148609801417, "timestamp": "2025-12-22T09:53:37.687108+00:00", "meta": {"OBJECT_NAME": "FENGYUN 1C DEB", "OBJECT_ID": "1999-025CRM", "EPOCH": "2025-12-21T09:08:50.463168", "MEAN_MOTION": 14.02839478, "ECCENTRICITY": 0.00860891, "INCLINATION": 99.8866, "RA_OF_ASC_NODE": 218.6288, "ARG_OF_PERICENTER": 29.2524, "MEAN_ANOMALY": 331.342, "EPHEMERIS_TYPE": 0, "CLASSIFICATION_TYPE": "U", "NORAD_CAT_ID": 32119, "ELEMENT_SET_NO": 999, "REV_AT_EPOCH": 93849, "BSTAR": 0.00056371909, "MEAN_MOTION_DOT": 8.5e-06, "MEAN_MOTION_DDOT": 0}, "tle": {"line1": "1 32119U 99025CRM 25355.38113962  .00000850  00000+0  56372-3 0  9992", "line2": "2 32119  99.8866 218.6288 0086089  29.2524 331.3420 14.02839478938499"}}, "geometry": {"type": "Point", "coordinates": [42.22416531059529, 13.917683452759317]}}, {"type": "Feature", "properties": {"norad_id": 32123, "name": "FENGYUN 1C DEB", "group": "fengyun-1c-debris", "lat": -41.8582886502657, "lon": 173.11561191086977, "alt_km": 627.7720625466927, "timestamp": "2025-12-22T09:53:37.687118+00:00", "meta": {"OBJECT_NAME": "FENGYUN 1C DEB", "OBJECT_ID": "1999-025CRR", "EPOCH": "2025-12-21T17:43:08.777856", "MEAN_MOTION": 14.61489863, "ECCENTRICITY": 0.0159478, "INCLINATION": 98.9414, "RA_OF_ASC_NODE": 164.2783, "ARG_OF_PERICENTER": 265.4991, "MEAN_ANOMALY": 106.8181, "EPHEMERIS_TYPE": 0, "CLASSIFICATION_TYPE": "U", "NORAD_CAT_ID": 32123, "ELEMENT_SET_NO": 999, "REV_AT_EPOCH": 71506, "BSTAR": 0.00024968, "MEAN_MOTION_DOT": 1.416e-05, "MEAN_MOTION_DDOT": 0}, "tle": {"line1": "1 32123U 99025CRR 25355.73829604  .00001416  00000+0  24968-3 0  9998", "line2": "2 32123  98.9414 164.2783 0159478 265.4991 106.8181 14.61489863715063"}}, "geometry": {"type": "Point", "coordinates": [173.11561191086977, -41.8582886502657]}}, {"type": "Feature", "properties": {"norad_id": 32125, "name": "FENGYUN 1C DEB", "group": "fengyun-1c-debris", "lat": 40.510587046227734, "lon": -30.01535494623102, "alt_km": 692.5933914778125, "timestamp": "2025-12-22T09:53:37.687127+00:00", "meta": {"OBJECT_NAME": "FENGYUN 1C DEB", "OBJECT_ID": "1999-025CRT", "EPOCH": "2025-12-14T04:03:21.187008", "MEAN_MOTION": 14.69917548, "ECCENTRICITY": 0.0174033, "INCLINATION": 99.062, "RA_OF_ASC_NODE": 328.6692, "ARG_OF_PERICENTER": 318.7989, "MEAN_ANOMALY": 40.0184, "EPHEMERIS_TYPE": 0, "CLASSIFICATION_TYPE": "U", "NORAD_CAT_ID": 32125, "ELEMENT_SET_NO": 999, "REV_AT_EPOCH": 70544, "BSTAR": 0.002785531, "MEAN_MOTION_DOT": 0.00021057, "MEAN_MOTION_DDOT": 0}, "tle": {"line1": "1 32125U 99025CRT 25348.16899522  .00021057  00000+0  27855-2 0  9995", "line2": "2 32125  99.0620 328.6692 0174033 318.7989  40.0184 14.69917548705441"}}, "geometry": {"type": "Point", "coordinates": [-30.01535494623102, 40.510587046227734]}}]}